NORAD_CAT_ID,OBJECT_NAME,OBJECT_TYPE,EPOCH,MEAN_MOTION,ECCENTRICITY,INCLINATION,RA_OF_ASC_NODE,ARG_OF_PERICENTER,MEAN_ANOMALY,BSTAR,MEAN_MOTION_DOT,MEAN_MOTION_DDOT,TLE_LINE0,TLE_LINE1,TLE_LINE2,SEMIMAJOR_AXIS,PERIOD,APOGEE,PERIGEE,DECAYED
53625.0,STARLINK-4603,PAYLOAD,2023-02-26 11:00:54,15.08850112,0.000123,53.2172,164.4718,90.2713,269.842,0.00025638,3.796e-05,0.0,0 STARLINK-4603,1 53625U 22104AP  23057.45896016  .00003796  00000-0  25638-3 0  9998,2 53625  53.2172 164.4718 0001230  90.2713 269.8420 15.08850112 28598,6917.849,95.437,540.565,538.864,0.0
53625.0,STARLINK-4603,PAYLOAD,2023-02-26 17:22:26,15.08865125,0.0001133,53.2171,163.2809,93.5611,266.5511,0.00056732,8.759e-05,0.0,0 STARLINK-4603,1 53625U 22104AP  23057.72391239  .00008759  00000-0  56732-3 0  9998,2 53625  53.2171 163.2809 0001133  93.5611 266.5511 15.08865125 27954,6917.804,95.436,540.452,538.885,0.0
53625.0,STARLINK-4603,PAYLOAD,2023-02-26 23:43:59,15.08836636,0.0001396,53.2172,162.0908,93.2054,266.9098,2.3554e-05,8.7e-07,0.0,0 STARLINK-4603,1 53625U 22104AP  23057.98888399  .00000087  00000-0  23554-4 0  9997,2 53625  53.2172 162.0908 0001396  93.2054 266.9098 15.08836636 27994,6917.891,95.438,540.721,538.79,0.0
53625.0,STARLINK-4603,PAYLOAD,2023-02-27 09:16:18,15.08834178,0.0001017,53.2174,160.3092,112.1415,247.9685,-0.00013875,-2.495e-05,0.0,0 STARLINK-4603,1 53625U 22104AP  23058.38632553 -.00002495  00000-0 -13875-3 0  9992,2 53625  53.2174 160.3092 0001017 112.1415 247.9685 15.08834178 28736,6917.898,95.438,540.467,539.06,0.0
53625.0,STARLINK-4603,PAYLOAD,2023-02-27 15:37:50,15.08873665,0.000128,53.2168,159.1194,101.6552,258.4584,0.00079656,0.00012424,0.0,0 STARLINK-4603,1 53625U 22104AP  23058.65127365  .00012424  00000-0  79656-3 0  9992,2 53625  53.2168 159.1194 0001280 101.6552 258.4584 15.08873665 28093,6917.777,95.435,540.528,538.757,0.0
53625.0,STARLINK-4603,PAYLOAD,2023-02-27 18:48:35,15.08885825,9.59e-05,53.2161,158.5245,102.6251,257.4849,0.0012423,0.00019563,0.0,0 STARLINK-4603,1 53625U 22104AP  23058.78374726  .00019563  00000-0  12423-2 0  9990,2 53625  53.2161 158.5245 0000959 102.6251 257.4849 15.08885825 28796,6917.74,95.435,540.269,538.942,0.0
53625.0,STARLINK-4603,PAYLOAD,2023-02-27 23:34:46,15.08834077,8.53e-05,53.217,157.6327,149.0027,211.1016,-0.00034884,-5.834e-05,0.0,0 STARLINK-4603,1 53625U 22104AP  23058.98247712 -.00005834  00000-0 -34884-3 0  9990,2 53625  53.2170 157.6327 0000853 149.0027 211.1016 15.08834077 28141,6917.898,95.438,540.354,539.173,0.0
53625.0,STARLINK-4603,PAYLOAD,2023-02-28 12:17:50,15.08871444,0.0001706,53.218,155.2533,106.6572,253.4608,0.00093227,0.00014593,0.0,0 STARLINK-4603,1 53625U 22104AP  23059.51239093  .00014593  00000-0  93227-3 0  9999,2 53625  53.2180 155.2533 0001706 106.6572 253.4608 15.08871444 28906,6917.784,95.436,540.829,538.469,0.0
53625.0,STARLINK-4603,PAYLOAD,2023-02-28 15:28:36,15.08876267,0.0001707,53.2179,154.6586,106.7749,253.3431,0.0010141,0.00015904,0.0,0 STARLINK-4603,1 53625U 22104AP  23059.64486795  .00015904  00000-0  10141-2 0  9996,2 53625  53.2179 154.6586 0001707 106.7749 253.3431 15.08876267 28241,6917.77,95.435,540.815,538.454,0.0
53625.0,STARLINK-4603,PAYLOAD,2023-03-01 05:47:04,15.08867017,0.0002599,53.2163,151.9839,87.3553,272.7736,0.00064675,0.00010028,0.0,0 STARLINK-4603,1 53625U 22104AP  23060.24102463  .00010028  00000-0  64675-3 0  9995,2 53625  53.2163 151.9839 0002599  87.3553 272.7736 15.08867017 28338,6917.798,95.436,541.461,537.865,0.0
53625.0,STARLINK-4603,PAYLOAD,2023-03-01 10:33:13,15.08852266,0.0001399,53.2159,151.0924,100.2007,259.9143,1.4579e-05,-5.6e-07,0.0,0 STARLINK-4603,1 53625U 22104AP  23060.43974119 -.00000056  00000-0  14579-4 0  9991,2 53625  53.2159 151.0924 0001399 100.2007 259.9143 15.08852266 28367,6917.843,95.437,540.676,538.74,0.0
53625.0,STARLINK-4603,PAYLOAD,2023-03-01 13:43:59,15.08857456,0.0001384,53.2169,150.4968,93.4186,266.6965,0.00026867,3.993e-05,0.0,0 STARLINK-4603,1 53625U 22104AP  23060.57221961  .00003993  00000-0  26867-3 0  9990,2 53625  53.2169 150.4968 0001384  93.4186 266.6965 15.08857456 29065,6917.827,95.436,540.649,538.735,0.0
53625.0,STARLINK-4603,PAYLOAD,2023-03-01 23:16:19,15.08826956,0.0001393,53.2163,148.7103,76.604,283.5107,-7.7248e-05,-1.517e-05,0.0,0 STARLINK-4603,1 53625U 22104AP  23060.96966934 -.00001517  00000-0 -77248-4 0  9991,2 53625  53.2163 148.7103 0001393  76.6040 283.5107 15.08826956 28440,6917.92,95.438,540.749,538.822,0.0
53625.0,STARLINK-4603,PAYLOAD,2023-03-02 11:59:26,15.08798443,0.0001716,53.2167,146.3346,60.467,299.6493,0.001234,0.00019383,0.0,0 STARLINK-4603,1 53625U 22104AP  23061.49960872  .00019383  00000-0  12340-2 0  9993,2 53625  53.2167 146.3346 0001716  60.4670 299.6493 15.08798443 28520,6918.007,95.44,541.06,538.685,0.0
53625.0,STARLINK-4603,PAYLOAD,2023-03-03 08:39:27,15.08873903,0.0001636,53.2168,142.4684,58.7875,301.3277,0.0029326,0.00046738,0.0,0 STARLINK-4603,1 53625U 22104AP  23062.36073111  .00046738  00000-0  29326-2 0  9997,2 53625  53.2168 142.4684 0001636  58.7875 301.3277 15.08873903 28651,6917.777,95.435,540.774,538.51,0.0
53625.0,STARLINK-4603,PAYLOAD,2023-03-03 10:14:50,15.08879718,0.0001658,53.2169,142.1711,58.2943,301.8211,0.0029615,0.00047212,0.0,0 STARLINK-4603,1 53625U 22104AP  23062.42696960  .00047212  00000-0  29615-2 0  9996,2 53625  53.2169 142.1711 0001658  58.2943 301.8211 15.08879718 29345,6917.759,95.435,540.771,538.477,0.0
53625.0,STARLINK-4603,PAYLOAD,2023-03-03 11:50:13,15.08886383,0.0001686,53.2171,141.8738,58.4928,301.6228,0.0030023,0.0004788,0.0,0 STARLINK-4603,1 53625U 22104AP  23062.49320765  .00047880  00000-0  30023-2 0  9996,2 53625  53.2171 141.8738 0001686  58.4928 301.6228 15.08886383 29352,6917.739,95.435,540.77,538.437,0.0
53625.0,STARLINK-4603,PAYLOAD,2023-03-04 05:19:27,15.08876547,0.0001075,53.2168,138.6021,88.6917,271.4198,0.0023157,0.00036796,0.0,0 STARLINK-4603,1 53625U 22104AP  23063.22184396  .00036796  00000-0  23157-2 0  9990,2 53625  53.2168 138.6021 0001075  88.6917 271.4198 15.08876547 28789,6917.769,95.435,540.377,538.89,0.0
53625.0,STARLINK-4603,PAYLOAD,2023-03-04 10:05:36,15.08850791,0.0001241,53.2173,137.7107,80.6638,279.4494,0.0021217,0.0003365,0.0,0 STARLINK-4603,1 53625U 22104AP  23063.42056433  .00033650  00000-0  21217-2 0  9993,2 53625  53.2173 137.7107 0001241  80.6638 279.4494 15.08850791 28811,6917.847,95.437,540.571,538.854,0.0
53625.0,STARLINK-4603,PAYLOAD,2023-03-04 21:13:18,15.08865286,0.0001273,53.2184,135.6292,77.8948,282.2187,0.0018149,0.00028734,0.0,0 STARLINK-4603,1 53625U 22104AP  23063.88424267  .00028734  00000-0  18149-2 0  9994,2 53625  53.2184 135.6292 0001273  77.8948 282.2187 15.08865286 28885,6917.803,95.436,540.549,538.787,0.0
53625.0,STARLINK-4603,PAYLOAD,2023-03-05 08:21:00,15.08856283,0.0001192,53.2187,133.5468,98.6663,261.4464,0.0015856,0.00025048,0.0,0 STARLINK-4603,1 53625U 22104AP  23064.34792042  .00025048  00000-0  15856-2 0  9992,2 53625  53.2187 133.5468 0001192  98.6663 261.4464 15.08856283 28957,6917.831,95.437,540.52,538.871,0.0
53625.0,STARLINK-4603,PAYLOAD,2023-03-05 21:04:04,15.08875122,0.0001177,53.2184,131.1675,64.0209,296.0905,0.0016777,0.00026539,0.0,0 STARLINK-4603,1 53625U 22104AP  23064.87783462  .00026539  00000-0  16777-2 0  9995,2 53625  53.2184 131.1675 0001177  64.0209 296.0905 15.08875122 29031,6917.773,95.435,540.452,538.824,0.0
53625.0,STARLINK-4603,PAYLOAD,2023-03-06 05:01:01,15.08820698,0.0001388,53.2182,129.6829,87.4883,272.6268,0.0007097,0.00011019,0.0,0 STARLINK-4603,1 53625U 22104AP  23065.20904233  .00011019  00000-0  70970-3 0  9997,2 53625  53.2182 129.6829 0001388  87.4883 272.6268 15.08820698 29088,6917.939,95.439,540.765,538.844,0.0
53625.0,STARLINK-4603,PAYLOAD,2023-03-06 09:47:11,15.08816594,0.00016,53.2177,128.7918,80.4097,279.7076,2.6396e-05,1.32e-06,0.0,0 STARLINK-4603,1 53625U 22104AP  23065.40777162  .00000132  00000-0  26396-4 0  9996,2 53625  53.2177 128.7918 0001600  80.4097 279.7076 15.08816594 29117,6917.952,95.439,540.924,538.71,0.0
53625.0,STARLINK-4603,PAYLOAD,2023-03-06 20:54:54,15.08807694,0.0001618,53.2171,126.7104,84.4044,275.7132,0.001281,0.0002014,0.0,0 STARLINK-4603,1 53625U 22104AP  23065.87146344  .00020140  00000-0  12810-2 0  9994,2 53625  53.2171 126.7104 0001618  84.4044 275.7132 15.08807694 29863,6917.979,95.44,540.963,538.725,0.0
53625.0,STARLINK-4603,PAYLOAD,2023-03-07 09:37:59,15.08845924,0.0001703,53.2174,124.3328,88.8249,271.2938,0.0020441,0.00032399,0.0,0 STARLINK-4603,1 53625U 22104AP  23066.40138718  .00032399  00000-0  20441-2 0  9998,2 53625  53.2174 124.3328 0001703  88.8249 271.2938 15.08845924 29265,6917.862,95.437,540.905,538.549,0.0
53625.0,STARLINK-4603,PAYLOAD,2023-03-07 20:45:41,15.08852932,0.0001269,53.2161,122.2462,96.8743,263.2393,0.00075163,0.00011699,0.0,0 STARLINK-4603,1 53625U 22104AP  23066.86506294  .00011699  00000-0  75163-3 0  9998,2 53625  53.2161 122.2462 0001269  96.8743 263.2393 15.08852932 30010,6917.841,95.437,540.584,538.828,0.0
53625.0,STARLINK-4603,PAYLOAD,2023-03-08 03:07:14,15.08857149,0.0002246,53.2157,121.0591,92.7777,267.3472,0.0015511,0.00024496,0.0,0 STARLINK-4603,1 53625U 22104AP  23067.13002687  .00024496  00000-0  15511-2 0  9995,2 53625  53.2157 121.0591 0002246  92.7777 267.3472 15.08857149 29378,6917.828,95.436,541.247,538.139,0.0
53625.0,STARLINK-4603,PAYLOAD,2023-03-08 09:28:46,15.08856109,0.0001705,53.2157,119.8701,91.0574,269.0614,0.00074177,0.00011542,0.0,0 STARLINK-4603,1 53625U 22104AP  23067.39498318  .00011542  00000-0  74177-3 0  9995,2 53625  53.2157 119.8701 0001705  91.0574 269.0614 15.08856109 29419,6917.831,95.437,540.876,538.517,0.0
53625.0,STARLINK-4603,PAYLOAD,2023-03-08 20:36:28,15.08863081,0.0001606,53.2137,117.7888,71.6777,288.439,0.0010994,0.00017263,0.0,0 STARLINK-4603,1 53625U 22104AP  23067.85866181  .00017263  00000-0  10994-2 0  9995,2 53625  53.2137 117.7888 0001606  71.6777 288.4390 15.08863081 30166,6917.81,95.436,540.786,538.564,0.0
